STARLINK-30821          
1 58181U 23167G   25106.73014632  .00000318  00000+0  38664-4 0  9994
2 58181  43.0056 122.3944 0002041 270.6929  89.3679 15.02537633 81770
STARLINK-30778          
1 58182U 23167H   25106.72680215  .00000538  00000+0  54910-4 0  9996
2 58182  43.0208 122.3572 0004421 266.1942  93.8396 15.02556700 81778
STARLINK-30809          
1 58183U 23167J   25107.49803107  .00000422  00000+0  46346-4 0  9995
2 58183  43.0036 118.6966 0001553 250.7022 109.3653 15.02536361 81831
STARLINK-30801          
1 58184U 23167K   25107.49466730 -.00047163  00000+0 -34797-2 0  9993
2 58184  43.0066 118.6694 0002908 287.6531  72.3993 15.02747968 81835
STARLINK-30793          
1 58185U 23167L   25106.72348755  .00001838  00000+0  15106-3 0  9996
2 58185  43.0011 122.3453 0002239 241.4646 118.5971 15.02555538 81775
STARLINK-30755          
1 58186U 23167M   25106.75458095  .00002807  00000+0  22276-3 0  9992
2 58186  43.0013 122.5823 0001665 270.8660  89.1991 15.02540374 81772
STARLINK-30760          
1 58187U 23167N   25106.38779556  .00005742  00000+0  43989-3 0  9995
2 58187  43.0022 124.1252 0001139 263.6052  96.4661 15.02528729 81728
STARLINK-30826          
1 58188U 23167P   25106.75345050  .00003518  00000+0  27529-3 0  9996
2 58188  43.0007 122.5675 0000201 268.4024  91.6795 15.02545503 81773
STARLINK-30796          
1 58189U 23167Q   25106.75675594 -.00020114  00000+0 -14751-2 0  9991
2 58189  43.0016 122.5958 0001581 255.5424 104.5243 15.02612498 81771
STARLINK-30820          
1 58190U 23167R   25106.76011733 -.00000323  00000+0 -88458-5 0  9991
2 58190  43.0011 122.6188 0000807 272.9320  87.1430 15.02536533 81771
STARLINK-30785          
1 58191U 23167S   25106.74680125 -.00000977  00000+0 -57288-4 0  9998
2 58191  43.0024 122.5181 0000985 280.9343  79.1388 15.02527112 81775
STARLINK-30807          
1 58192U 23167T   25106.75012899  .00000477  00000+0  50381-4 0  9997
2 58192  43.0007 122.5464 0001021 269.9797  90.0928 15.02535090 81779
STARLINK-30822          
1 58193U 23167U   25107.00940407 -.00003025  00000+0 -20901-3 0  9990
2 58193  43.0016 121.0503 0001463 349.7506  10.3306 15.02524759 81813
STARLINK-30830          
1 58194U 23167V   25107.33334491 -.00058646  00000+0 -43602-2 0  9998
2 58194  43.0019 119.2222 0001229 277.0660  61.4773 15.02557580  5828
STARLINK-30827          
1 58195U 23167W   25107.00267692  .00006183  00000+0  47140-3 0  9990
2 58195  42.9911 121.0084 0004615  63.4272 296.7043 15.02609612 81813
STARLINK-30798          
1 58196U 23167X   25107.51136396  .00014312  00000+0  10717-2 0  9995
2 58196  43.0002 118.7965 0001358 268.7682  91.3004 15.02561035 81838
STARLINK-30762          
1 58197U 23167Y   25106.34126899  .00001283  00000+0  11005-3 0  9998
2 58197  43.0033 124.6362 0001511 282.0049  78.0624 15.02538793 81719
STARLINK-30800          
1 58206U 23170A   25107.59631252  .00001196  00000+0  10356-3 0  9996
2 58206  42.9979 168.0780 0000894 326.6938  33.3848 15.02540436 81245
STARLINK-30845          
1 58207U 23170B   25107.62615049  .00001094  00000+0  96068-4 0  9999
2 58207  43.0075 167.4530 0003374 243.1136 116.9362 15.02538955 81264
STARLINK-30841          
1 58208U 23170C   25107.60627058  .00001868  00000+0  15331-3 0  9993
2 58208  43.0102 168.1213 0006648 242.5805 117.4362 15.02541946 81120
STARLINK-30839          
1 58209U 23170D   25106.52267392  .00000548  00000+0  55620-4 0  9995
2 58209  43.0036 173.7753 0001330 271.7941  88.2749 15.02530952 81080
STARLINK-30846          
1 58210U 23170E   25107.58964950  .00000479  00000+0  50509-4 0  9992
2 58210  42.9984 168.0240 0000716 297.0122  63.0647 15.02539305 81123
STARLINK-30838          
1 58211U 23170F   25107.57965224  .00000134  00000+0  25015-4 0  9999
2 58211  43.0003 167.9503 0001801 260.1914  99.8724 15.02531861 81249
STARLINK-30837          
1 58212U 23170G   25106.52934543  .00000472  00000+0  50035-4 0  9999
2 58212  42.9981 173.8075 0001463 262.2090  97.8586 15.02530419 81090
STARLINK-30813          
1 58213U 23170H   25107.64280781  .00000560  00000+0  56542-4 0  9999
2 58213  43.0009 167.5604 0001333 270.9340  89.1350 15.02540151 81134
STARLINK-30805          
1 58214U 23170J   25106.57583259  .00001004  00000+0  89355-4 0  9999
2 58214  43.0029 173.3140 0001304 270.6877  89.3815 15.02548403 81087
STARLINK-30851          
1 58215U 23170K   25107.56969133 -.00021629  00000+0 -15942-2 0  9995
2 58215  43.0015 167.8720 0002376 261.5346  98.5227 15.02456987 81124
STARLINK-30818          
1 58217U 23170M   25106.63232156  .00006742  00000+0  51348-3 0  9990
2 58217  43.0013 172.8796 0001673 264.8672  95.1979 15.02548657 81088
STARLINK-30794          
1 58218U 23170N   25106.51935676  .00011570  00000+0  87007-3 0  9991
2 58218  43.0011 173.7311 0001005 266.2020  93.8708 15.02538357 81083
STARLINK-30835          
1 58219U 23170P   25107.55633821  .00000293  00000+0  36770-4 0  9996
2 58219  43.0080 167.7643 0001796 253.4594 106.6052 15.02552535 81126
STARLINK-30792          
1 58220U 23170Q   25106.48937672  .00007131  00000+0  54220-3 0  9997
2 58220  42.9981 173.5244 0001081 238.3281 121.7456 15.02552063 81087
STARLINK-30836          
1 58221U 23170R   25107.54970191  .00002587  00000+0  20652-3 0  9991
2 58221  43.0020 167.7199 0001698  43.2490 316.8486 15.02538593 81225
STARLINK-30855          
1 58222U 23170S   25106.67227522  .00001132  00000+0  98842-4 0  9990
2 58222  43.0030 173.1580 0001461 264.7000  95.3676 15.02539947 81085
STARLINK-30840          
1 58223U 23170T   25107.66611827 -.00000250  00000+0 -34098-5 0  9992
2 58223  43.0151 167.7007 0002329  24.0714 336.0237 15.02542807 81140
STARLINK-30875          
1 58224U 23170U   25107.49985975  .00002903  00000+0  22976-3 0  9997
2 58224  42.9969 168.1962 0000411 326.1084  33.9732 15.02548565 81215
STARLINK-30872          
1 58225U 23170V   25106.66086752  .00001830  00000+0  79779-4 0  9993
2 58225  43.0027  98.3118 0001189 277.7785  82.2931 15.25910680 81968
STARLINK-30865          
1 58226U 23170W   25107.57808754 -.00000591  00000+0 -28712-4 0  9995
2 58226  42.9984 156.8901 0000968 294.9026  65.1715 15.02544523 81258
STARLINK-30874          
1 58227U 23170X   25107.61296530 -.00000010  00000+0  14347-4 0  9998
2 58227  42.9991 168.1815 0000448 328.8809  31.2007 15.02534780 81135
STARLINK-30871          
1 58228U 23170Y   25107.54314857  .00001117  00000+0  97764-4 0  9996
2 58228  42.9950 168.5229 0001311 257.7246 102.3450 15.02537783 80035
STARLINK-30861          
1 58230U 23171A   25107.80696718 -.00035582  00000+0 -26303-2 0  9992
2 58230  43.0084 256.8064 0003893 226.9341 133.1176 15.02557147 80726
STARLINK-30867          
1 58231U 23171B   25107.74392917  .00000089  00000+0  21688-4 0  9995
2 58231  43.0028 257.1950 0001632 258.2385 101.8274 15.02537386 80711
STARLINK-30880          
1 58232U 23171C   25107.81373075  .00000194  00000+0  29453-4 0  9993
2 58232  43.0029 256.8569 0002326 241.4686 118.5923 15.02539742 80662
STARLINK-30777          
1 58233U 23171D   25107.91668981  .00049373  00000+0  36507-2 0  9996
2 58233  43.0028 256.3842 0001493 278.4293 243.1975 15.02469738 80679
STARLINK-30860          
1 58234U 23171E   25107.75060524 -.00002646  00000+0 -18084-3 0  9993
2 58234  43.0019 257.2455 0001384 260.9279  99.1407 15.02539466 80719
STARLINK-30879          
1 58235U 23171F   25107.72280216 -.00003658  00000+0 -12343-3 0  9999
2 58235  43.0183 192.0217 0001073 250.0518 110.0218 15.27584614 81418
STARLINK-30853          
1 58236U 23171G   25106.69361404  .00002982  00000+0  23579-3 0  9994
2 58236  43.0036 263.0695 0002522 277.4569  82.5987 15.02525796 80531
STARLINK-30866          
1 58237U 23171H   25107.79376062 -.00003093  00000+0 -21398-3 0  9996
2 58237  43.0037 256.6980 0001772 270.5603  89.5037 15.02532138 80718
STARLINK-30817          
1 58238U 23171J   25107.75625270  .00001769  00000+0  14905-3 0  9993
2 58238  43.0010 257.2768 0002031 258.1225 101.9389 15.01731017 80717
STARLINK-30847          
1 58239U 23171K   25107.76391174  .00000901  00000+0  81780-4 0  9991
2 58239  43.0011 257.3371 0001302 265.9247  94.1447 15.02537154 80715
STARLINK-30848          
1 58240U 23171L   25107.84504656 -.00004123  00000+0 -29017-3 0  9999
2 58240  43.0026 257.9157 0000999 271.7566  88.3162 15.02557761 80716
STARLINK-30843          
1 58241U 23171M   25107.76725880  .00006239  00000+0  47695-3 0  9995
2 58241  43.0035 257.3454 0001415  13.7985 346.2896 15.02502192 80712
STARLINK-30877          
1 58242U 23171N   25107.73061345  .00000577  00000+0  57790-4 0  9999
2 58242  43.0049 257.0827 0000835 285.3211  74.7539 15.02552417 80715
STARLINK-30864          
1 58243U 23171P   25107.84027315 -.00000558  00000+0 -26274-4 0  9995
2 58243  43.0023 256.1973 0001330 262.4173  97.6519 15.02530770 80624
STARLINK-30854          
1 58244U 23171Q   25107.76526061  .00000977  00000+0  87426-4 0  9998
2 58244  43.0036 258.1948 0001350 270.5928  89.4760 15.02535316 80711
STARLINK-30849          
1 58245U 23171R   25107.77712041 -.00001760  00000+0 -11531-3 0  9991
2 58245  42.9999 256.5837 0001350 265.4932  94.5756 15.02521942 80717
STARLINK-30886          
1 58246U 23171S   25107.85024573  .00001565  00000+0  13094-3 0  9994
2 58246  43.0050 256.2651 0001389 279.8934  80.1751 15.02535567 80738
STARLINK-30850          
1 58247U 23171T   25106.78327809  .00000568  00000+0  57141-4 0  9998
2 58247  43.0018 262.0236 0001086 252.5308 107.5416 15.02535194 80552
STARLINK-30823          
1 58248U 23171U   25106.78993927 -.00001080  00000+0 -64856-4 0  9992
2 58248  43.0033 262.0711 0001225 264.1794  95.8909 15.02547911 80557
STARLINK-30873          
1 58249U 23171V   25106.85973699  .00000525  00000+0  53905-4 0  9999
2 58249  43.0019 261.7318 0001844 246.5121 113.5528 15.02540153 80563
